; Generated by Commander GCody
; Board: 420.000 x 420.000 x 10.000 mm
; Text: Hello / There
; Font: Times New Roman
; Text bounding box: 157.692 x 125.253 mm
; Board surface Z: 10.000 mm
; Plunge depth: 0.500 mm
; Z down: 9.500 mm
; Z up: 15.000 mm
; XY origin: center of board/text

G21 ; millimeters
G90 ; absolute positioning
G0 Z15.000

G0 X-65.841 Y39.211
G1 Z9.500 F300
G1 X-44.616 Y39.211 F1200
G1 X-44.616 Y52.283 F1200
G1 X-45.054 Y56.899 F1200
G1 X-46.469 Y58.347 F1200
G1 X-49.535 Y59.156 F1200
G1 X-51.152 Y59.156 F1200
G1 X-51.152 Y60.403 F1200
G1 X-31.611 Y60.403 F1200
G1 X-31.611 Y59.156 F1200
G1 X-33.228 Y59.156 F1200
G1 X-36.294 Y58.381 F1200
G1 X-37.759 Y56.747 F1200
G1 X-38.147 Y52.283 F1200
G1 X-38.147 Y22.803 F1200
G1 X-37.709 Y18.221 F1200
G1 X-36.328 Y16.772 F1200
G1 X-33.228 Y15.964 F1200
G1 X-31.611 Y15.964 F1200
G1 X-31.611 Y14.717 F1200
G1 X-51.152 Y14.717 F1200
G1 X-51.152 Y15.964 F1200
G1 X-49.535 Y15.964 F1200
G1 X-47.117 Y16.376 F1200
G1 X-45.458 Y17.615 F1200
G1 X-44.826 Y19.451 F1200
G1 X-44.616 Y22.803 F1200
G1 X-44.616 Y36.718 F1200
G1 X-65.841 Y36.718 F1200
G1 X-65.841 Y22.803 F1200
G1 X-65.403 Y18.221 F1200
G1 X-63.988 Y16.772 F1200
G1 X-60.922 Y15.964 F1200
G1 X-59.271 Y15.964 F1200
G1 X-59.271 Y14.717 F1200
G1 X-78.846 Y14.717 F1200
G1 X-78.846 Y15.964 F1200
G1 X-77.229 Y15.964 F1200
G1 X-74.786 Y16.376 F1200
G1 X-73.119 Y17.615 F1200
G1 X-72.512 Y19.451 F1200
G1 X-72.310 Y22.803 F1200
G1 X-72.310 Y52.283 F1200
G1 X-72.748 Y56.899 F1200
G1 X-74.129 Y58.347 F1200
G1 X-77.229 Y59.156 F1200
G1 X-78.846 Y59.156 F1200
G1 X-78.846 Y60.403 F1200
G1 X-59.271 Y60.403 F1200
G1 X-59.271 Y59.156 F1200
G1 X-60.922 Y59.156 F1200
G1 X-63.988 Y58.381 F1200
G1 X-65.437 Y56.747 F1200
G1 X-65.841 Y52.283 F1200
G1 X-65.841 Y39.211 F1200
G0 Z15.000

G0 X-22.881 Y33.955
G1 Z9.500 F300
G1 X-22.685 Y30.704 F1200
G1 X-22.064 Y27.823 F1200
G1 X-21.017 Y25.313 F1200
G1 X-19.545 Y23.174 F1200
G1 X-15.881 Y20.242 F1200
G1 X-13.828 Y19.510 F1200
G1 X-11.628 Y19.265 F1200
G1 X-8.793 Y19.682 F1200
G1 X-6.355 Y20.933 F1200
G1 X-4.296 Y23.195 F1200
G1 X-2.598 Y26.644 F1200
G1 X-1.554 Y25.970 F1200
G1 X-2.935 Y21.561 F1200
G1 X-5.664 Y17.564 F1200
G1 X-9.497 Y14.721 F1200
G1 X-11.735 Y14.011 F1200
G1 X-14.188 Y13.774 F1200
G1 X-16.868 Y14.044 F1200
G1 X-19.347 Y14.856 F1200
G1 X-21.627 Y16.209 F1200
G1 X-23.706 Y18.103 F1200
G1 X-25.438 Y20.454 F1200
G1 X-26.675 Y23.178 F1200
G1 X-27.417 Y26.274 F1200
G1 X-27.665 Y29.743 F1200
G1 X-27.411 Y33.484 F1200
G1 X-26.650 Y36.789 F1200
G1 X-25.381 Y39.658 F1200
G1 X-23.605 Y42.091 F1200
G1 X-21.446 Y44.030 F1200
G1 X-19.027 Y45.414 F1200
G1 X-16.350 Y46.245 F1200
G1 X-13.413 Y46.522 F1200
G1 X-10.935 Y46.308 F1200
G1 X-8.688 Y45.667 F1200
G1 X-4.889 Y43.102 F1200
G1 X-2.388 Y39.105 F1200
G1 X-1.762 Y36.674 F1200
G1 X-1.554 Y33.955 F1200
G1 X-22.881 Y33.955 F1200
G0 Z15.000

G0 X-22.881 Y35.909
G1 Z9.500 F300
G1 X-8.595 Y35.909 F1200
G1 X-9.303 Y40.087 F1200
G1 X-10.352 Y41.771 F1200
G1 X-11.813 Y43.052 F1200
G1 X-13.519 Y43.860 F1200
G1 X-15.300 Y44.130 F1200
G1 X-17.949 Y43.586 F1200
G1 X-20.303 Y41.957 F1200
G1 X-22.051 Y39.358 F1200
G1 X-22.881 Y35.909 F1200
G0 Z15.000

G0 X13.144 Y62.626
G1 Z9.500 F300
G1 X13.144 Y21.691 F1200
G1 X13.565 Y17.850 F1200
G1 X14.862 Y16.419 F1200
G1 X18.130 Y15.930 F1200
G1 X18.130 Y14.717 F1200
G1 X3.003 Y14.717 F1200
G1 X3.003 Y15.930 F1200
G1 X5.900 Y16.368 F1200
G1 X7.113 Y17.817 F1200
G1 X7.551 Y21.691 F1200
G1 X7.551 Y49.722 F1200
G1 X7.315 Y56.141 F1200
G1 X6.557 Y57.775 F1200
G1 X5.226 Y58.213 F1200
G1 X3.003 Y57.674 F1200
G1 X2.430 Y58.853 F1200
G1 X11.628 Y62.626 F1200
G1 X13.144 Y62.626 F1200
G0 Z15.000

G0 X32.344 Y62.626
G1 Z9.500 F300
G1 X32.344 Y21.691 F1200
G1 X32.765 Y17.850 F1200
G1 X34.062 Y16.419 F1200
G1 X37.330 Y15.930 F1200
G1 X37.330 Y14.717 F1200
G1 X22.203 Y14.717 F1200
G1 X22.203 Y15.930 F1200
G1 X25.100 Y16.368 F1200
G1 X26.313 Y17.817 F1200
G1 X26.751 Y21.691 F1200
G1 X26.751 Y49.722 F1200
G1 X26.515 Y56.141 F1200
G1 X25.757 Y57.775 F1200
G1 X24.426 Y58.213 F1200
G1 X22.203 Y57.674 F1200
G1 X21.630 Y58.853 F1200
G1 X30.828 Y62.626 F1200
G1 X32.344 Y62.626 F1200
G0 Z15.000

G0 X56.025 Y46.488
G1 Z9.500 F300
G1 X59.356 Y46.155 F1200
G1 X62.342 Y45.157 F1200
G1 X64.982 Y43.494 F1200
G1 X67.278 Y41.165 F1200
G1 X69.981 Y36.280 F1200
G1 X70.657 Y33.584 F1200
G1 X70.883 Y30.721 F1200
G1 X70.386 Y26.551 F1200
G1 X68.895 Y22.331 F1200
G1 X66.532 Y18.608 F1200
G1 X63.420 Y15.930 F1200
G1 X59.735 Y14.313 F1200
G1 X55.654 Y13.774 F1200
G1 X52.346 Y14.121 F1200
G1 X49.396 Y15.164 F1200
G1 X46.804 Y16.901 F1200
G1 X44.570 Y19.333 F1200
G1 X41.967 Y24.302 F1200
G1 X41.316 Y27.002 F1200
G1 X41.099 Y29.845 F1200
G1 X41.626 Y34.077 F1200
G1 X43.205 Y38.284 F1200
G1 X45.644 Y41.931 F1200
G1 X48.747 Y44.483 F1200
G1 X52.285 Y45.987 F1200
G1 X56.025 Y46.488 F1200
G0 Z15.000

G0 X54.980 Y44.298
G1 Z9.500 F300
G1 X53.190 Y44.033 F1200
G1 X51.392 Y43.237 F1200
G1 X49.762 Y41.776 F1200
G1 X48.478 Y39.514 F1200
G1 X47.644 Y36.473 F1200
G1 X47.366 Y32.675 F1200
G1 X48.036 Y26.400 F1200
G1 X50.044 Y21.051 F1200
G1 X51.490 Y18.914 F1200
G1 X53.148 Y17.387 F1200
G1 X55.019 Y16.471 F1200
G1 X57.103 Y16.166 F1200
G1 X60.085 Y16.840 F1200
G1 X62.493 Y18.861 F1200
G1 X64.085 Y22.525 F1200
G1 X64.616 Y28.126 F1200
G1 X64.395 Y32.018 F1200
G1 X63.732 Y35.471 F1200
G1 X62.626 Y38.486 F1200
G1 X61.078 Y41.064 F1200
G1 X58.358 Y43.490 F1200
G1 X54.980 Y44.298 F1200
G0 Z15.000

G0 X-40.101 Y-15.997
G1 Z9.500 F300
G1 X-39.596 Y-26.711 F1200
G1 X-40.876 Y-26.711 F1200
G1 X-41.887 Y-22.668 F1200
G1 X-43.104 Y-20.971 F1200
G1 X-44.666 Y-19.788 F1200
G1 X-46.675 Y-19.093 F1200
G1 X-49.231 Y-18.861 F1200
G1 X-55.666 Y-18.861 F1200
G1 X-55.666 Y-53.765 F1200
G1 X-55.439 Y-57.185 F1200
G1 X-54.757 Y-59.021 F1200
G1 X-53.131 Y-60.083 F1200
G1 X-50.815 Y-60.436 F1200
G1 X-49.231 Y-60.436 F1200
G1 X-49.231 Y-61.683 F1200
G1 X-68.604 Y-61.683 F1200
G1 X-68.604 Y-60.436 F1200
G1 X-66.987 Y-60.436 F1200
G1 X-64.510 Y-59.998 F1200
G1 X-62.876 Y-58.684 F1200
G1 X-62.320 Y-56.916 F1200
G1 X-62.135 Y-53.765 F1200
G1 X-62.135 Y-18.861 F1200
G1 X-67.627 Y-18.861 F1200
G1 X-72.175 Y-19.333 F1200
G1 X-73.801 Y-20.268 F1200
G1 X-75.174 Y-21.792 F1200
G1 X-76.168 Y-23.932 F1200
G1 X-76.656 Y-26.711 F1200
G1 X-77.936 Y-26.711 F1200
G1 X-77.397 Y-15.997 F1200
G1 X-40.101 Y-15.997 F1200
G0 Z15.000

G0 X-26.706 Y-13.774
G1 Z9.500 F300
G1 X-26.706 Y-36.347 F1200
G1 X-23.354 Y-32.974 F1200
G1 X-20.776 Y-31.074 F1200
G1 X-18.586 Y-30.203 F1200
G1 X-16.396 Y-29.912 F1200
G1 X-13.954 Y-30.274 F1200
G1 X-11.882 Y-31.361 F1200
G1 X-10.239 Y-33.222 F1200
G1 X-9.085 Y-35.909 F1200
G1 X-8.605 Y-38.958 F1200
G1 X-8.445 Y-43.793 F1200
G1 X-8.445 Y-54.709 F1200
G1 X-7.974 Y-58.718 F1200
G1 X-6.828 Y-59.998 F1200
G1 X-3.863 Y-60.470 F1200
G1 X-3.863 Y-61.683 F1200
G1 X-19.024 Y-61.683 F1200
G1 X-19.024 Y-60.470 F1200
G1 X-18.317 Y-60.470 F1200
G1 X-16.489 Y-60.306 F1200
G1 X-15.318 Y-59.813 F1200
G1 X-14.139 Y-57.876 F1200
G1 X-14.038 Y-54.709 F1200
G1 X-14.038 Y-43.793 F1200
G1 X-14.560 Y-37.156 F1200
G1 X-16.228 Y-34.780 F1200
G1 X-18.991 Y-33.989 F1200
G1 X-22.427 Y-34.865 F1200
G1 X-26.706 Y-38.402 F1200
G1 X-26.706 Y-54.709 F1200
G1 X-26.352 Y-58.651 F1200
G1 X-25.038 Y-59.948 F1200
G1 X-21.720 Y-60.470 F1200
G1 X-21.720 Y-61.683 F1200
G1 X-37.016 Y-61.683 F1200
G1 X-37.016 Y-60.470 F1200
G1 X-33.781 Y-59.830 F1200
G1 X-32.703 Y-58.550 F1200
G1 X-32.299 Y-54.709 F1200
G1 X-32.299 Y-26.779 F1200
G1 X-32.552 Y-20.276 F1200
G1 X-33.326 Y-18.625 F1200
G1 X-34.725 Y-18.187 F1200
G1 X-37.016 Y-18.726 F1200
G1 X-37.487 Y-17.547 F1200
G1 X-28.256 Y-13.774 F1200
G1 X-26.706 Y-13.774 F1200
G0 Z15.000

G0 X3.919 Y-42.445
G1 Z9.500 F300
G1 X4.115 Y-45.696 F1200
G1 X4.736 Y-48.577 F1200
G1 X5.783 Y-51.087 F1200
G1 X7.255 Y-53.226 F1200
G1 X10.919 Y-56.158 F1200
G1 X12.972 Y-56.890 F1200
G1 X15.172 Y-57.135 F1200
G1 X18.007 Y-56.718 F1200
G1 X20.445 Y-55.467 F1200
G1 X22.504 Y-53.205 F1200
G1 X24.202 Y-49.756 F1200
G1 X25.246 Y-50.430 F1200
G1 X23.865 Y-54.839 F1200
G1 X21.136 Y-58.836 F1200
G1 X17.303 Y-61.679 F1200
G1 X15.065 Y-62.389 F1200
G1 X12.612 Y-62.626 F1200
G1 X9.932 Y-62.356 F1200
G1 X7.453 Y-61.544 F1200
G1 X5.173 Y-60.191 F1200
G1 X3.094 Y-58.297 F1200
G1 X1.362 Y-55.946 F1200
G1 X0.125 Y-53.222 F1200
G1 X-0.617 Y-50.126 F1200
G1 X-0.865 Y-46.657 F1200
G1 X-0.611 Y-42.916 F1200
G1 X0.150 Y-39.611 F1200
G1 X1.419 Y-36.742 F1200
G1 X3.195 Y-34.309 F1200
G1 X5.354 Y-32.370 F1200
G1 X7.773 Y-30.986 F1200
G1 X10.450 Y-30.155 F1200
G1 X13.387 Y-29.878 F1200
G1 X15.865 Y-30.092 F1200
G1 X18.112 Y-30.733 F1200
G1 X21.911 Y-33.298 F1200
G1 X24.412 Y-37.295 F1200
G1 X25.038 Y-39.726 F1200
G1 X25.246 Y-42.445 F1200
G1 X3.919 Y-42.445 F1200
G0 Z15.000

G0 X3.919 Y-40.491
G1 Z9.500 F300
G1 X18.205 Y-40.491 F1200
G1 X17.497 Y-36.313 F1200
G1 X16.448 Y-34.629 F1200
G1 X14.987 Y-33.348 F1200
G1 X13.281 Y-32.540 F1200
G1 X11.500 Y-32.270 F1200
G1 X8.851 Y-32.814 F1200
G1 X6.497 Y-34.443 F1200
G1 X4.749 Y-37.042 F1200
G1 X3.919 Y-40.491 F1200
G0 Z15.000

G0 X38.360 Y-29.912
G1 Z9.500 F300
G1 X38.360 Y-36.852 F1200
G1 X40.310 Y-33.816 F1200
G1 X42.285 Y-31.647 F1200
G1 X44.286 Y-30.346 F1200
G1 X46.311 Y-29.912 F1200
G1 X48.004 Y-30.194 F1200
G1 X49.377 Y-31.041 F1200
G1 X50.287 Y-32.258 F1200
G1 X50.590 Y-33.652 F1200
G1 X49.714 Y-35.875 F1200
G1 X47.625 Y-36.785 F1200
G1 X44.981 Y-35.623 F1200
G1 X42.808 Y-34.460 F1200
G1 X41.494 Y-35.134 F1200
G1 X38.360 Y-39.682 F1200
G1 X38.360 Y-54.473 F1200
G1 X39.000 Y-58.347 F1200
G1 X40.550 Y-59.864 F1200
G1 X43.751 Y-60.470 F1200
G1 X43.751 Y-61.683 F1200
G1 X27.950 Y-61.683 F1200
G1 X27.950 Y-60.470 F1200
G1 X30.005 Y-60.285 F1200
G1 X31.454 Y-59.729 F1200
G1 X32.633 Y-58.011 F1200
G1 X32.801 Y-54.742 F1200
G1 X32.801 Y-42.782 F1200
G1 X32.582 Y-36.364 F1200
G1 X31.774 Y-34.865 F1200
G1 X30.308 Y-34.393 F1200
G1 X27.950 Y-34.898 F1200
G1 X27.613 Y-33.685 F1200
G1 X36.945 Y-29.912 F1200
G1 X38.360 Y-29.912 F1200
G0 Z15.000

G0 X57.519 Y-42.445
G1 Z9.500 F300
G1 X57.715 Y-45.696 F1200
G1 X58.336 Y-48.577 F1200
G1 X59.383 Y-51.087 F1200
G1 X60.855 Y-53.226 F1200
G1 X64.519 Y-56.158 F1200
G1 X66.572 Y-56.890 F1200
G1 X68.772 Y-57.135 F1200
G1 X71.607 Y-56.718 F1200
G1 X74.045 Y-55.467 F1200
G1 X76.104 Y-53.205 F1200
G1 X77.802 Y-49.756 F1200
G1 X78.846 Y-50.430 F1200
G1 X77.465 Y-54.839 F1200
G1 X74.736 Y-58.836 F1200
G1 X70.903 Y-61.679 F1200
G1 X68.665 Y-62.389 F1200
G1 X66.212 Y-62.626 F1200
G1 X63.532 Y-62.356 F1200
G1 X61.053 Y-61.544 F1200
G1 X58.773 Y-60.191 F1200
G1 X56.694 Y-58.297 F1200
G1 X54.962 Y-55.946 F1200
G1 X53.725 Y-53.222 F1200
G1 X52.983 Y-50.126 F1200
G1 X52.735 Y-46.657 F1200
G1 X52.989 Y-42.916 F1200
G1 X53.750 Y-39.611 F1200
G1 X55.019 Y-36.742 F1200
G1 X56.795 Y-34.309 F1200
G1 X58.954 Y-32.370 F1200
G1 X61.373 Y-30.986 F1200
G1 X64.050 Y-30.155 F1200
G1 X66.987 Y-29.878 F1200
G1 X69.465 Y-30.092 F1200
G1 X71.712 Y-30.733 F1200
G1 X75.511 Y-33.298 F1200
G1 X78.012 Y-37.295 F1200
G1 X78.638 Y-39.726 F1200
G1 X78.846 Y-42.445 F1200
G1 X57.519 Y-42.445 F1200
G0 Z15.000

G0 X57.519 Y-40.491
G1 Z9.500 F300
G1 X71.805 Y-40.491 F1200
G1 X71.097 Y-36.313 F1200
G1 X70.048 Y-34.629 F1200
G1 X68.587 Y-33.348 F1200
G1 X66.881 Y-32.540 F1200
G1 X65.100 Y-32.270 F1200
G1 X62.451 Y-32.814 F1200
G1 X60.097 Y-34.443 F1200
G1 X58.349 Y-37.042 F1200
G1 X57.519 Y-40.491 F1200
G0 Z15.000

G0 Z15.000
G0 X0 Y0 ; return to origin
M2
